ATLAS CENTAUR R/B       
1 06155U 72065B   25321.99256613  .00001619  00000+0  22545-3 0  9998
2 06155  35.0013 240.1529 0033484 151.9713 208.2798 14.77319564824730
SL-8 R/B                
1 08459U 75112B   25322.13585213  .00000400  00000+0  14047-3 0  9996
2 08459  74.0607 224.1106 0015960 338.7936  21.2554 14.38123454615835
SL-3 R/B                
1 10114U 77057B   25322.10524301  .00013562  00000+0  31802-3 0  9996
2 10114  97.5674 124.4904 0007174 334.9476  25.1422 15.42171896651110
SEASAT 1                
1 10967U 78064A   25321.77822597  .00000733  00000+0  24392-3 0  9993
2 10967 108.0073 250.6724 0002260 253.9539 106.1358 14.46021830490338
SL-14 R/B               
1 11267U 79011B   25322.17076063  .00000873  00000+0  83928-4 0  9990
2 11267  82.5256 202.3422 0017647  71.5780 288.7356 14.91728717512155
SL-8 R/B                
1 11574U 79089B   25322.07360448  .00000448  00000+0  14353-3 0  9991
2 11574  74.0679 297.6315 0014840 142.2033 218.0169 14.42259697420011
SL-14 R/B               
1 11672U 80005B   25321.70782117  .00001162  00000+0  11557-3 0  9997
2 11672  82.5162  53.4345 0015985 171.6475 188.5014 14.90746930459802
SL-8 R/B                
1 12139U 81003B   25322.16028611  .00027160  00000+0  74120-3 0  9999
2 12139  82.9344  32.8053 0282044 205.3133 153.4057 15.05854411297867
SL-3 R/B                
1 12465U 81046B   25322.12149935  .00013280  00000+0  34159-3 0  9993
2 12465  81.2342  63.3671 0020484  49.1142 311.1870 15.38909818421252
SL-3 R/B                
1 12904U 81103B   25322.10565286  .00007156  00000+0  33237-3 0  9995
2 12904  81.1592 344.1981 0011968 309.9484  50.0694 15.19811411956271
SL-3 R/B                
1 13068U 82013B   25322.10362647  .00005274  00000+0  23668-3 0  9990
2 13068  81.1730 291.4412 0022439 191.8786 168.1920 15.20779118387380
