CCSDS_OMM_VERS = 2.0
CREATION_DATE  = 
ORIGINATOR     = 

OBJECT_NAME    = ATLAS CENTAUR R/B
OBJECT_ID      = 1972-065B
CENTER_NAME    = EARTH
REF_FRAME      = TEME
TIME_SYSTEM    = UTC
MEAN_ELEMENT_THEORY = SGP/SGP4

EPOCH          = 2025-11-17T23:49:17.713632
MEAN_MOTION    = 14.77319564
ECCENTRICITY   = .0033484
INCLINATION    = 35.0013
RA_OF_ASC_NODE = 240.1529
ARG_OF_PERICENTER = 151.9713
MEAN_ANOMALY   = 208.2798

EPHEMERIS_TYPE = 0
CLASSIFICATION_TYPE = U
NORAD_CAT_ID   = 6155
ELEMENT_SET_NO = 999
REV_AT_EPOCH   = 82473
BSTAR          = .22545E-3
MEAN_MOTION_DOT = .1619E-4
MEAN_MOTION_DDOT = 0

CCSDS_OMM_VERS = 2.0
CREATION_DATE  = 
ORIGINATOR     = 

OBJECT_NAME    = SL-8 R/B
OBJECT_ID      = 1975-112B
CENTER_NAME    = EARTH
REF_FRAME      = TEME
TIME_SYSTEM    = UTC
MEAN_ELEMENT_THEORY = SGP/SGP4

EPOCH          = 2025-11-18T03:15:37.624032
MEAN_MOTION    = 14.38123454
ECCENTRICITY   = .001596
INCLINATION    = 74.0607
RA_OF_ASC_NODE = 224.1106
ARG_OF_PERICENTER = 338.7936
MEAN_ANOMALY   = 21.2554

EPHEMERIS_TYPE = 0
CLASSIFICATION_TYPE = U
NORAD_CAT_ID   = 8459
ELEMENT_SET_NO = 999
REV_AT_EPOCH   = 61583
BSTAR          = .14047E-3
MEAN_MOTION_DOT = .4E-5
MEAN_MOTION_DDOT = 0

CCSDS_OMM_VERS = 2.0
CREATION_DATE  = 
ORIGINATOR     = 

OBJECT_NAME    = SL-3 R/B
OBJECT_ID      = 1977-057B
CENTER_NAME    = EARTH
REF_FRAME      = TEME
TIME_SYSTEM    = UTC
MEAN_ELEMENT_THEORY = SGP/SGP4

EPOCH          = 2025-11-18T02:31:32.996064
MEAN_MOTION    = 15.42171896
ECCENTRICITY   = .0007174
INCLINATION    = 97.5674
RA_OF_ASC_NODE = 124.4904
ARG_OF_PERICENTER = 334.9476
MEAN_ANOMALY   = 25.1422

EPHEMERIS_TYPE = 0
CLASSIFICATION_TYPE = U
NORAD_CAT_ID   = 10114
ELEMENT_SET_NO = 999
REV_AT_EPOCH   = 65111
BSTAR          = .31802E-3
MEAN_MOTION_DOT = .13562E-3
MEAN_MOTION_DDOT = 0

CCSDS_OMM_VERS = 2.0
CREATION_DATE  = 
ORIGINATOR     = 

OBJECT_NAME    = SEASAT 1
OBJECT_ID      = 1978-064A
CENTER_NAME    = EARTH
REF_FRAME      = TEME
TIME_SYSTEM    = UTC
MEAN_ELEMENT_THEORY = SGP/SGP4

EPOCH          = 2025-11-17T18:40:38.723808
MEAN_MOTION    = 14.46021830
ECCENTRICITY   = .000226
INCLINATION    = 108.0073
RA_OF_ASC_NODE = 250.6724
ARG_OF_PERICENTER = 253.9539
MEAN_ANOMALY   = 106.1358

EPHEMERIS_TYPE = 0
CLASSIFICATION_TYPE = U
NORAD_CAT_ID   = 10967
ELEMENT_SET_NO = 999
REV_AT_EPOCH   = 49033
BSTAR          = .24392E-3
MEAN_MOTION_DOT = .733E-5
MEAN_MOTION_DDOT = 0

CCSDS_OMM_VERS = 2.0
CREATION_DATE  = 
ORIGINATOR     = 

OBJECT_NAME    = SL-14 R/B
OBJECT_ID      = 1979-011B
CENTER_NAME    = EARTH
REF_FRAME      = TEME
TIME_SYSTEM    = UTC
MEAN_ELEMENT_THEORY = SGP/SGP4

EPOCH          = 2025-11-18T04:05:53.718432
MEAN_MOTION    = 14.91728717
ECCENTRICITY   = .0017647
INCLINATION    = 82.5256
RA_OF_ASC_NODE = 202.3422
ARG_OF_PERICENTER = 71.5780
MEAN_ANOMALY   = 288.7356

EPHEMERIS_TYPE = 0
CLASSIFICATION_TYPE = U
NORAD_CAT_ID   = 11267
ELEMENT_SET_NO = 999
REV_AT_EPOCH   = 51215
BSTAR          = .83928E-4
MEAN_MOTION_DOT = .873E-5
MEAN_MOTION_DDOT = 0

CCSDS_OMM_VERS = 2.0
CREATION_DATE  = 
ORIGINATOR     = 

OBJECT_NAME    = SL-8 R/B
OBJECT_ID      = 1979-089B
CENTER_NAME    = EARTH
REF_FRAME      = TEME
TIME_SYSTEM    = UTC
MEAN_ELEMENT_THEORY = SGP/SGP4

EPOCH          = 2025-11-18T01:45:59.427072
MEAN_MOTION    = 14.42259697
ECCENTRICITY   = .001484
INCLINATION    = 74.0679
RA_OF_ASC_NODE = 297.6315
ARG_OF_PERICENTER = 142.2033
MEAN_ANOMALY   = 218.0169

EPHEMERIS_TYPE = 0
CLASSIFICATION_TYPE = U
NORAD_CAT_ID   = 11574
ELEMENT_SET_NO = 999
REV_AT_EPOCH   = 42001
BSTAR          = .14353E-3
MEAN_MOTION_DOT = .448E-5
MEAN_MOTION_DDOT = 0

CCSDS_OMM_VERS = 2.0
CREATION_DATE  = 
ORIGINATOR     = 

OBJECT_NAME    = SL-14 R/B
OBJECT_ID      = 1980-005B
CENTER_NAME    = EARTH
REF_FRAME      = TEME
TIME_SYSTEM    = UTC
MEAN_ELEMENT_THEORY = SGP/SGP4

EPOCH          = 2025-11-17T16:59:15.749088
MEAN_MOTION    = 14.90746930
ECCENTRICITY   = .0015985
INCLINATION    = 82.5162
RA_OF_ASC_NODE = 53.4345
ARG_OF_PERICENTER = 171.6475
MEAN_ANOMALY   = 188.5014

EPHEMERIS_TYPE = 0
CLASSIFICATION_TYPE = U
NORAD_CAT_ID   = 11672
ELEMENT_SET_NO = 999
REV_AT_EPOCH   = 45980
BSTAR          = .11557E-3
MEAN_MOTION_DOT = .1162E-4
MEAN_MOTION_DDOT = 0

CCSDS_OMM_VERS = 2.0
CREATION_DATE  = 
ORIGINATOR     = 

OBJECT_NAME    = SL-8 R/B
OBJECT_ID      = 1981-003B
CENTER_NAME    = EARTH
REF_FRAME      = TEME
TIME_SYSTEM    = UTC
MEAN_ELEMENT_THEORY = SGP/SGP4

EPOCH          = 2025-11-18T03:50:48.719904
MEAN_MOTION    = 15.05854411
ECCENTRICITY   = .0282044
INCLINATION    = 82.9344
RA_OF_ASC_NODE = 32.8053
ARG_OF_PERICENTER = 205.3133
MEAN_ANOMALY   = 153.4057

EPHEMERIS_TYPE = 0
CLASSIFICATION_TYPE = U
NORAD_CAT_ID   = 12139
ELEMENT_SET_NO = 999
REV_AT_EPOCH   = 29786
BSTAR          = .7412E-3
MEAN_MOTION_DOT = .2716E-3
MEAN_MOTION_DDOT = 0

CCSDS_OMM_VERS = 2.0
CREATION_DATE  = 
ORIGINATOR     = 

OBJECT_NAME    = SL-3 R/B
OBJECT_ID      = 1981-046B
CENTER_NAME    = EARTH
REF_FRAME      = TEME
TIME_SYSTEM    = UTC
MEAN_ELEMENT_THEORY = SGP/SGP4

EPOCH          = 2025-11-18T02:54:57.543840
MEAN_MOTION    = 15.38909818
ECCENTRICITY   = .0020484
INCLINATION    = 81.2342
RA_OF_ASC_NODE = 63.3671
ARG_OF_PERICENTER = 49.1142
MEAN_ANOMALY   = 311.1870

EPHEMERIS_TYPE = 0
CLASSIFICATION_TYPE = U
NORAD_CAT_ID   = 12465
ELEMENT_SET_NO = 999
REV_AT_EPOCH   = 42125
BSTAR          = .34159E-3
MEAN_MOTION_DOT = .1328E-3
MEAN_MOTION_DDOT = 0

CCSDS_OMM_VERS = 2.0
CREATION_DATE  = 
ORIGINATOR     = 

OBJECT_NAME    = SL-3 R/B
OBJECT_ID      = 1981-103B
CENTER_NAME    = EARTH
REF_FRAME      = TEME
TIME_SYSTEM    = UTC
MEAN_ELEMENT_THEORY = SGP/SGP4

EPOCH          = 2025-11-18T02:32:08.407104
MEAN_MOTION    = 15.19811411
ECCENTRICITY   = .0011968
INCLINATION    = 81.1592
RA_OF_ASC_NODE = 344.1981
ARG_OF_PERICENTER = 309.9484
MEAN_ANOMALY   = 50.0694

EPHEMERIS_TYPE = 0
CLASSIFICATION_TYPE = U
NORAD_CAT_ID   = 12904
ELEMENT_SET_NO = 999
REV_AT_EPOCH   = 95627
BSTAR          = .33237E-3
MEAN_MOTION_DOT = .7156E-4
MEAN_MOTION_DDOT = 0

CCSDS_OMM_VERS = 2.0
CREATION_DATE  = 
ORIGINATOR     = 

OBJECT_NAME    = SL-3 R/B
OBJECT_ID      = 1982-013B
CENTER_NAME    = EARTH
REF_FRAME      = TEME
TIME_SYSTEM    = UTC
MEAN_ELEMENT_THEORY = SGP/SGP4

EPOCH          = 2025-11-18T02:29:13.327008
MEAN_MOTION    = 15.20779118
ECCENTRICITY   = .0022439
INCLINATION    = 81.1730
RA_OF_ASC_NODE = 291.4412
ARG_OF_PERICENTER = 191.8786
MEAN_ANOMALY   = 168.1920

EPHEMERIS_TYPE = 0
CLASSIFICATION_TYPE = U
NORAD_CAT_ID   = 13068
ELEMENT_SET_NO = 999
REV_AT_EPOCH   = 38738
BSTAR          = .23668E-3
MEAN_MOTION_DOT = .5274E-4
MEAN_MOTION_DDOT = 0

